[
  {
    "OBJECT_NAME": "STARLINK-1333",
    "OBJECT_ID": "2020-025BB",
    "EPOCH": "2025-04-16T07:16:38.779104",
    "MEAN_MOTION": 15.06405658,
    "ECCENTRICITY": 0.0001492,
    "INCLINATION": 53.0572,
    "RA_OF_ASC_NODE": 116.3115,
    "ARG_OF_PERICENTER": 72.6496,
    "MEAN_ANOMALY": 287.4656,
    "EPHEMERIS_TYPE": 0,
    "CLASSIFICATION_TYPE": "U",
    "NORAD_CAT_ID": 45580,
    "ELEMENT_SET_NO": 999,
    "REV_AT_EPOCH": 27602,
    "BSTAR": 0.00028106,
    "MEAN_MOTION_DOT": 3.908e-5,
    "MEAN_MOTION_DDOT": 0
  },
  {
    "OBJECT_NAME": "STARLINK-1335",
    "OBJECT_ID": "2020-025BC",
    "EPOCH": "2025-04-16T16:56:32.009856",
    "MEAN_MOTION": 15.06407777,
    "ECCENTRICITY": 0.000141,
    "INCLINATION": 53.0531,
    "RA_OF_ASC_NODE": 104.5024,
    "ARG_OF_PERICENTER": 84.805,
    "MEAN_ANOMALY": 275.31,
    "EPHEMERIS_TYPE": 0,
    "CLASSIFICATION_TYPE": "U",
    "NORAD_CAT_ID": 45581,
    "ELEMENT_SET_NO": 999,
    "REV_AT_EPOCH": 27622,
    "BSTAR": 0.000152,
    "MEAN_MOTION_DOT": 1.984e-5,
    "MEAN_MOTION_DDOT": 0
  },
  {
    "OBJECT_NAME": "STARLINK-1337",
    "OBJECT_ID": "2020-025BD",
    "EPOCH": "2025-04-16T17:28:19.871328",
    "MEAN_MOTION": 15.06448385,
    "ECCENTRICITY": 0.0001498,
    "INCLINATION": 53.0527,
    "RA_OF_ASC_NODE": 104.4025,
    "ARG_OF_PERICENTER": 102.7629,
    "MEAN_ANOMALY": 257.3527,
    "EPHEMERIS_TYPE": 0,
    "CLASSIFICATION_TYPE": "U",
    "NORAD_CAT_ID": 45582,
    "ELEMENT_SET_NO": 999,
    "REV_AT_EPOCH": 27622,
    "BSTAR": 0.00089751,
    "MEAN_MOTION_DOT": 0.00013129,
    "MEAN_MOTION_DDOT": 0
  },
  {
    "OBJECT_NAME": "STARLINK-1347",
    "OBJECT_ID": "2020-025BH",
    "EPOCH": "2025-04-16T04:33:28.295712",
    "MEAN_MOTION": 15.06403574,
    "ECCENTRICITY": 0.000143,
    "INCLINATION": 53.0533,
    "RA_OF_ASC_NODE": 106.8202,
    "ARG_OF_PERICENTER": 102.8654,
    "MEAN_ANOMALY": 257.2495,
    "EPHEMERIS_TYPE": 0,
    "CLASSIFICATION_TYPE": "U",
    "NORAD_CAT_ID": 45586,
    "ELEMENT_SET_NO": 999,
    "REV_AT_EPOCH": 27553,
    "BSTAR": 0.00057625,
    "MEAN_MOTION_DOT": 8.313e-5,
    "MEAN_MOTION_DDOT": 0
  },
  {
    "OBJECT_NAME": "STARLINK-1349",
    "OBJECT_ID": "2020-025BJ",
    "EPOCH": "2025-04-16T16:35:17.806848",
    "MEAN_MOTION": 15.06399951,
    "ECCENTRICITY": 0.0001498,
    "INCLINATION": 53.0537,
    "RA_OF_ASC_NODE": 104.5708,
    "ARG_OF_PERICENTER": 87.3521,
    "MEAN_ANOMALY": 272.764,
    "EPHEMERIS_TYPE": 0,
    "CLASSIFICATION_TYPE": "U",
    "NORAD_CAT_ID": 45587,
    "ELEMENT_SET_NO": 999,
    "REV_AT_EPOCH": 27622,
    "BSTAR": 0.00039624,
    "MEAN_MOTION_DOT": 5.625e-5,
    "MEAN_MOTION_DDOT": 0
  },
  {
    "OBJECT_NAME": "STARLINK-1360",
    "OBJECT_ID": "2020-025BK",
    "EPOCH": "2025-04-16T22:00:00.999936",
    "MEAN_MOTION": 15.53362611,
    "ECCENTRICITY": 0.0001748,
    "INCLINATION": 53.0534,
    "RA_OF_ASC_NODE": 85.8042,
    "ARG_OF_PERICENTER": 93.9145,
    "MEAN_ANOMALY": 268.6947,
    "EPHEMERIS_TYPE": 0,
    "CLASSIFICATION_TYPE": "U",
    "NORAD_CAT_ID": 45588,
    "ELEMENT_SET_NO": 999,
    "REV_AT_EPOCH": 594,
    "BSTAR": 0.0012299,
    "MEAN_MOTION_DOT": 0.00079401,
    "MEAN_MOTION_DDOT": 0
  },
  {
    "OBJECT_NAME": "STARLINK-1364",
    "OBJECT_ID": "2020-025BL",
    "EPOCH": "2025-04-16T19:09:13.731840",
    "MEAN_MOTION": 15.06409364,
    "ECCENTRICITY": 0.0001341,
    "INCLINATION": 53.0522,
    "RA_OF_ASC_NODE": 104.0865,
    "ARG_OF_PERICENTER": 84.493,
    "MEAN_ANOMALY": 275.6212,
    "EPHEMERIS_TYPE": 0,
    "CLASSIFICATION_TYPE": "U",
    "NORAD_CAT_ID": 45589,
    "ELEMENT_SET_NO": 999,
    "REV_AT_EPOCH": 27623,
    "BSTAR": 0.00055343,
    "MEAN_MOTION_DOT": 7.973e-5,
    "MEAN_MOTION_DDOT": 0
  },
  {
    "OBJECT_NAME": "STARLINK-1365",
    "OBJECT_ID": "2020-025BM",
    "EPOCH": "2025-04-16T13:09:39.189600",
    "MEAN_MOTION": 15.06401232,
    "ECCENTRICITY": 0.0001432,
    "INCLINATION": 53.0539,
    "RA_OF_ASC_NODE": 135.2154,
    "ARG_OF_PERICENTER": 89.7927,
    "MEAN_ANOMALY": 270.3226,
    "EPHEMERIS_TYPE": 0,
    "CLASSIFICATION_TYPE": "U",
    "NORAD_CAT_ID": 45590,
    "ELEMENT_SET_NO": 999,
    "REV_AT_EPOCH": 27579,
    "BSTAR": 0.00020795,
    "MEAN_MOTION_DOT": 2.817e-5,
    "MEAN_MOTION_DDOT": 0
  },
  {
    "OBJECT_NAME": "STARLINK-1443",
    "OBJECT_ID": "2020-035D",
    "EPOCH": "2025-04-16T04:50:42.854496",
    "MEAN_MOTION": 15.06386735,
    "ECCENTRICITY": 0.0001557,
    "INCLINATION": 53.0563,
    "RA_OF_ASC_NODE": 96.7646,
    "ARG_OF_PERICENTER": 97.5773,
    "MEAN_ANOMALY": 262.5393,
    "EPHEMERIS_TYPE": 0,
    "CLASSIFICATION_TYPE": "U",
    "NORAD_CAT_ID": 45660,
    "ELEMENT_SET_NO": 999,
    "REV_AT_EPOCH": 26937,
    "BSTAR": -3.6922e-6,
    "MEAN_MOTION_DOT": -3.36e-6,
    "MEAN_MOTION_DDOT": 0
  },
  {
    "OBJECT_NAME": "STARLINK-1444",
    "OBJECT_ID": "2020-035E",
    "EPOCH": "2025-04-17T00:41:04.571232",
    "MEAN_MOTION": 16.1986951,
    "ECCENTRICITY": 0.000493,
    "INCLINATION": 53.0322,
    "RA_OF_ASC_NODE": 355.8383,
    "ARG_OF_PERICENTER": 231.1824,
    "MEAN_ANOMALY": 266.98,
    "EPHEMERIS_TYPE": 0,
    "CLASSIFICATION_TYPE": "U",
    "NORAD_CAT_ID": 45661,
    "ELEMENT_SET_NO": 999,
    "REV_AT_EPOCH": 27044,
    "BSTAR": 0.0012274,
    "MEAN_MOTION_DOT": 0.02415973,
    "MEAN_MOTION_DDOT": 1.1803e-5
  },
  {
    "OBJECT_NAME": "STARLINK-1446",
    "OBJECT_ID": "2020-035G",
    "EPOCH": "2025-04-16T22:20:33.284256",
    "MEAN_MOTION": 15.19629658,
    "ECCENTRICITY": 0.0004863,
    "INCLINATION": 53.0483,
    "RA_OF_ASC_NODE": 83.3296,
    "ARG_OF_PERICENTER": 345.988,
    "MEAN_ANOMALY": 14.0979,
    "EPHEMERIS_TYPE": 0,
    "CLASSIFICATION_TYPE": "U",
    "NORAD_CAT_ID": 45663,
    "ELEMENT_SET_NO": 999,
    "REV_AT_EPOCH": 26962,
    "BSTAR": 0.0081641,
    "MEAN_MOTION_DOT": 0.00180283,
    "MEAN_MOTION_DDOT": 0
  },
  {
    "OBJECT_NAME": "STARLINK-1448",
    "OBJECT_ID": "2020-035J",
    "EPOCH": "2025-04-16T22:26:55.964544",
    "MEAN_MOTION": 15.06403002,
    "ECCENTRICITY": 0.000138,
    "INCLINATION": 53.0546,
    "RA_OF_ASC_NODE": 93.4719,
    "ARG_OF_PERICENTER": 89.642,
    "MEAN_ANOMALY": 270.4727,
    "EPHEMERIS_TYPE": 0,
    "CLASSIFICATION_TYPE": "U",
    "NORAD_CAT_ID": 45665,
    "ELEMENT_SET_NO": 999,
    "REV_AT_EPOCH": 26947,
    "BSTAR": 6.2589e-5,
    "MEAN_MOTION_DOT": 6.51e-6,
    "MEAN_MOTION_DDOT": 0
  },
  {
    "OBJECT_NAME": "STARLINK-1449",
    "OBJECT_ID": "2020-035K",
    "EPOCH": "2025-04-16T22:00:00.999936",
    "MEAN_MOTION": 15.92032726,
    "ECCENTRICITY": 0.0002167,
    "INCLINATION": 53.0209,
    "RA_OF_ASC_NODE": 4.6569,
    "ARG_OF_PERICENTER": 86.1582,
    "MEAN_ANOMALY": 173.6862,
    "EPHEMERIS_TYPE": 0,
    "CLASSIFICATION_TYPE": "U",
    "NORAD_CAT_ID": 45666,
    "ELEMENT_SET_NO": 999,
    "REV_AT_EPOCH": 606,
    "BSTAR": 0.0011097,
    "MEAN_MOTION_DOT": 0.00374464,
    "MEAN_MOTION_DDOT": 6.452e-5
  },
  {
    "OBJECT_NAME": "STARLINK-1451",
    "OBJECT_ID": "2020-035M",
    "EPOCH": "2025-04-16T22:32:18.005856",
    "MEAN_MOTION": 15.06402327,
    "ECCENTRICITY": 0.0001431,
    "INCLINATION": 53.0545,
    "RA_OF_ASC_NODE": 93.7716,
    "ARG_OF_PERICENTER": 94.117,
    "MEAN_ANOMALY": 265.9982,
    "EPHEMERIS_TYPE": 0,
    "CLASSIFICATION_TYPE": "U",
    "NORAD_CAT_ID": 45668,
    "ELEMENT_SET_NO": 999,
    "REV_AT_EPOCH": 26948,
    "BSTAR": 0.00012557,
    "MEAN_MOTION_DOT": 1.589e-5,
    "MEAN_MOTION_DDOT": 0
  }
]
