STARLINK-1333           
1 45580U 20025BB  25106.30322661  .00003908  00000+0  28106-3 0  9997
2 45580  53.0572 116.3115 0001492  72.6496 287.4656 15.06405658276029
STARLINK-1335           
1 45581U 20025BC  25106.70592604  .00001984  00000+0  15200-3 0  9991
2 45581  53.0531 104.5024 0001410  84.8050 275.3100 15.06407777276220
STARLINK-1337           
1 45582U 20025BD  25106.72800777  .00013129  00000+0  89751-3 0  9993
2 45582  53.0527 104.4025 0001498 102.7629 257.3527 15.06448385276227
STARLINK-1347           
1 45586U 20025BH  25106.18991083  .00008313  00000+0  57625-3 0  9992
2 45586  53.0533 106.8202 0001430 102.8654 257.2495 15.06403574275533
STARLINK-1349           
1 45587U 20025BJ  25106.69117832  .00005625  00000+0  39624-3 0  9993
2 45587  53.0537 104.5708 0001498  87.3521 272.7640 15.06399951276222
STARLINK-1360           
1 45588U 20025BK  25106.91667824  .00079401  00000+0  12299-2 0  9991
2 45588  53.0534  85.8042 0001748  93.9145 268.6947 15.53362611  5943
STARLINK-1364           
1 45589U 20025BL  25106.79807560  .00007973  00000+0  55343-3 0  9994
2 45589  53.0522 104.0865 0001341  84.4930 275.6212 15.06409364276234
STARLINK-1365           
1 45590U 20025BM  25106.54837025  .00002817  00000+0  20795-3 0  9993
2 45590  53.0539 135.2154 0001432  89.7927 270.3226 15.06401232275799
STARLINK-1443           
1 45660U 20035D   25106.20188489 -.00000336  00000+0 -36922-5 0  9995
2 45660  53.0563  96.7646 0001557  97.5773 262.5393 15.06386735269370
STARLINK-1444           
1 45661U 20035E   25107.02852513  .02415973  11803-4  12274-2 0  9999
2 45661  53.0322 355.8383 0004930 231.1824 266.9800 16.19869510270445
STARLINK-1446           
1 45663U 20035G   25106.93094079  .00180283  00000+0  81641-2 0  9992
2 45663  53.0483  83.3296 0004863 345.9880  14.0979 15.19629658269625
STARLINK-1448           
1 45665U 20035J   25106.93536996  .00000651  00000+0  62589-4 0  9995
2 45665  53.0546  93.4719 0001380  89.6420 270.4727 15.06403002269473
STARLINK-1449           
1 45666U 20035K   25106.91667824  .00374464  64520-4  11097-2 0  9993
2 45666  53.0209   4.6569 0002167  86.1582 173.6862 15.92032726  6066
STARLINK-1451           
1 45668U 20035M   25106.93909729  .00001589  00000+0  12557-3 0  9996
2 45668  53.0545  93.7716 0001431  94.1170 265.9982 15.06402327269487
